{"type": "FeatureCollection", "features": [ {"type": "Feature", "properties": {"norad_id": 66654, "name": "JACK E", "group": "last-30-days", "lat": -51.45046585111943, "lon": -68.33094790667162, "alt_km": 597.1497831903689, "timestamp": "2025-12-20T18:51:30.445631+00:00", "meta": {"OBJECT_NAME": "JACK E", "OBJECT_ID": "2025-274E", "EPOCH": "2025-12-20T14:15:48.506688", "MEAN_MOTION": 14.92120191, "ECCENTRICITY": 0.00121163, "INCLINATION": 97.7404, "RA_OF_ASC_NODE": 281.6529, "ARG_OF_PERICENTER": 226.2924, "MEAN_ANOMALY": 133.7292, "EPHEMERIS_TYPE": 0, "CLASSIFICATION_TYPE": "U", "NORAD_CAT_ID": 66654, "ELEMENT_SET_NO": 999, "REV_AT_EPOCH": 357, "BSTAR": 0.00015193028, "MEAN_MOTION_DOT": 1.49e-05, "MEAN_MOTION_DDOT": 0}, "tle": {"line1": "1 66654U 25274E   25354.59431142  .00001490  00000+0  15193-3 0  9990", "line2": "2 66654  97.7404 281.6529 0012116 226.2924 133.7292 14.92120191  3573"}}, "geometry": {"type": "Point", "coordinates": [-68.33094790667162, -51.45046585111943]}}, {"type": "Feature", "properties": {"norad_id": 66655, "name": "2025-274F", "group": "last-30-days", "lat": -74.15216665090554, "lon": -49.57527488875028, "alt_km": 600.6117835074629, "timestamp": "2025-12-20T18:51:30.445641+00:00", "meta": {"OBJECT_NAME": "2025-274F", "OBJECT_ID": "2025-274F", "EPOCH": "2025-12-20T06:18:55.747008", "MEAN_MOTION": 14.91177941, "ECCENTRICITY": 0.00048535, "INCLINATION": 97.7331, "RA_OF_ASC_NODE": 281.313, "ARG_OF_PERICENTER": 358.9445, "MEAN_ANOMALY": 1.1763, "EPHEMERIS_TYPE": 0, "CLASSIFICATION_TYPE": "U", "NORAD_CAT_ID": 66655, "ELEMENT_SET_NO": 999, "REV_AT_EPOCH": 352, "BSTAR": 6.82258e-07, "MEAN_MOTION_DOT": -4.8e-07, "MEAN_MOTION_DDOT": 0}, "tle": {"line1": "1 66655U 25274F   25354.26314522 -.00000048  00000+0  68226-6 0  9994", "line2": "2 66655  97.7331 281.3130 0004853 358.9445   1.1763 14.91177941  3528"}}, "geometry": {"type": "Point", "coordinates": [-49.57527488875028, -74.15216665090554]}}, {"type": "Feature", "properties": {"norad_id": 66656, "name": "2025-274G", "group": "last-30-days", "lat": -35.54515818286637, "lon": -72.57611880917489, "alt_km": 598.0700611186685, "timestamp": "2025-12-20T18:51:30.445653+00:00", "meta": {"OBJECT_NAME": "2025-274G", "OBJECT_ID": "2025-274G", "EPOCH": "2025-12-20T12:34:56.409600", "MEAN_MOTION": 14.92314842, "ECCENTRICITY": 0.00126761, "INCLINATION": 97.7402, "RA_OF_ASC_NODE": 281.5902, "ARG_OF_PERICENTER": 228.3122, "MEAN_ANOMALY": 131.7013, "EPHEMERIS_TYPE": 0, "CLASSIFICATION_TYPE": "U", "NORAD_CAT_ID": 66656, "ELEMENT_SET_NO": 999, "REV_AT_EPOCH": 356, "BSTAR": 0.00015709789, "MEAN_MOTION_DOT": 1.551e-05, "MEAN_MOTION_DDOT": 0}, "tle": {"line1": "1 66656U 25274G   25354.52426400  .00001551  00000+0  15710-3 0  9999", "line2": "2 66656  97.7402 281.5902 0012676 228.3122 131.7013 14.92314842  3567"}}, "geometry": {"type": "Point", "coordinates": [-72.57611880917489, -35.54515818286637]}}, {"type": "Feature", "properties": {"norad_id": 66657, "name": "SPIRONE", "group": "last-30-days", "lat": -20.24545137484036, "lon": -75.27147607942452, "alt_km": 595.9167198919022, "timestamp": "2025-12-20T18:51:30.445664+00:00", "meta": {"OBJECT_NAME": "SPIRONE", "OBJECT_ID": "2025-274H", "EPOCH": "2025-12-20T09:17:44.255328", "MEAN_MOTION": 14.92493759, "ECCENTRICITY": 0.00108035, "INCLINATION": 97.74, "RA_OF_ASC_NODE": 281.4615, "ARG_OF_PERICENTER": 247.1085, "MEAN_ANOMALY": 112.8995, "EPHEMERIS_TYPE": 0, "CLASSIFICATION_TYPE": "U", "NORAD_CAT_ID": 66657, "ELEMENT_SET_NO": 999, "REV_AT_EPOCH": 354, "BSTAR": 0.00015446404, "MEAN_MOTION_DOT": 1.53e-05, "MEAN_MOTION_DDOT": 0}, "tle": {"line1": "1 66657U 25274H   25354.38731777  .00001530  00000+0  15446-3 0  9993", "line2": "2 66657  97.7400 281.4615 0010803 247.1085 112.8995 14.92493759  3545"}}, "geometry": {"type": "Point", "coordinates": [-75.27147607942452, -20.24545137484036]}}, {"type": "Feature", "properties": {"norad_id": 66658, "name": "2025-274J", "group": "last-30-days", "lat": -5.420592651028556, "lon": -77.40079110325611, "alt_km": 595.4650164817958, "timestamp": "2025-12-20T18:51:30.445676+00:00", "meta": {"OBJECT_NAME": "2025-274J", "OBJECT_ID": "2025-274J", "EPOCH": "2025-12-20T09:13:47.162496", "MEAN_MOTION": 14.92663953, "ECCENTRICITY": 0.00113218, "INCLINATION": 97.74, "RA_OF_ASC_NODE": 281.4653, "ARG_OF_PERICENTER": 250.3836, "MEAN_ANOMALY": 109.6161, "EPHEMERIS_TYPE": 0, "CLASSIFICATION_TYPE": "U", "NORAD_CAT_ID": 66658, "ELEMENT_SET_NO": 999, "REV_AT_EPOCH": 354, "BSTAR": 0.00014447927, "MEAN_MOTION_DOT": 1.434e-05, "MEAN_MOTION_DDOT": 0}, "tle": {"line1": "1 66658U 25274J   25354.38457364  .00001434  00000+0  14448-3 0  9995", "line2": "2 66658  97.7400 281.4653 0011321 250.3836 109.6161 14.92663953  3548"}}, "geometry": {"type": "Point", "coordinates": [-77.40079110325611, -5.420592651028556]}}, {"type": "Feature", "properties": {"norad_id": 66659, "name": "JACK K", "group": "last-30-days", "lat": 10.488698525124375, "lon": -79.57567321556765, "alt_km": 594.768452938989, "timestamp": "2025-12-20T18:51:30.445685+00:00", "meta": {"OBJECT_NAME": "JACK K", "OBJECT_ID": "2025-274K", "EPOCH": "2025-12-19T09:01:45.234336", "MEAN_MOTION": 14.92845388, "ECCENTRICITY": 0.001198, "INCLINATION": 97.7401, "RA_OF_ASC_NODE": 280.481, "ARG_OF_PERICENTER": 255.6276, "MEAN_ANOMALY": 104.3614, "EPHEMERIS_TYPE": 0, "CLASSIFICATION_TYPE": "U", "NORAD_CAT_ID": 66659, "ELEMENT_SET_NO": 999, "REV_AT_EPOCH": 339, "BSTAR": 0.00014908, "MEAN_MOTION_DOT": 1.489e-05, "MEAN_MOTION_DDOT": 0}, "tle": {"line1": "1 66659U 25274K   25353.37621799  .00001489  00000+0  14908-3 0  9990", "line2": "2 66659  97.7401 280.4810 0011980 255.6276 104.3614 14.92845388  3393"}}, "geometry": {"type": "Point", "coordinates": [-79.57567321556765, 10.488698525124375]}}, {"type": "Feature", "properties": {"norad_id": 66660, "name": "K-HERO", "group": "last-30-days", "lat": 23.364723766074967, "lon": -81.4950570934478, "alt_km": 594.087851211947, "timestamp": "2025-12-20T18:51:30.445697+00:00", "meta": {"OBJECT_NAME": "K-HERO", "OBJECT_ID": "2025-274L", "EPOCH": "2025-12-20T09:06:07.173216", "MEAN_MOTION": 14.92999765, "ECCENTRICITY": 0.00126244, "INCLINATION": 97.7407, "RA_OF_ASC_NODE": 281.4738, "ARG_OF_PERICENTER": 252.6789, "MEAN_ANOMALY": 107.305, "EPHEMERIS_TYPE": 0, "CLASSIFICATION_TYPE": "U", "NORAD_CAT_ID": 66660, "ELEMENT_SET_NO": 999, "REV_AT_EPOCH": 354, "BSTAR": 0.00013230337, "MEAN_MOTION_DOT": 1.32e-05, "MEAN_MOTION_DDOT": 0}, "tle": {"line1": "1 66660U 25274L   25354.37924969  .00001320  00000+0  13230-3 0  9999", "line2": "2 66660  97.7407 281.4738 0012624 252.6789 107.3050 14.92999765  3546"}}, "geometry": {"type": "Point", "coordinates": [-81.4950570934478, 23.364723766074967]}}, {"type": "Feature", "properties": {"norad_id": 66661, "name": "SNUGLITE-III", "group": "last-30-days", "lat": 35.73773210428439, "lon": -83.73861197262805, "alt_km": 593.1839119972483, "timestamp": "2025-12-20T18:51:30.445707+00:00", "meta": {"OBJECT_NAME": "SNUGLITE-III", "OBJECT_ID": "2025-274M", "EPOCH": "2025-12-20T09:02:48.732288", "MEAN_MOTION": 14.93134742, "ECCENTRICITY": 0.00132373, "INCLINATION": 97.7406, "RA_OF_ASC_NODE": 281.476, "ARG_OF_PERICENTER": 253.9546, "MEAN_ANOMALY": 106.0216, "EPHEMERIS_TYPE": 0, "CLASSIFICATION_TYPE": "U", "NORAD_CAT_ID": 66661, "ELEMENT_SET_NO": 999, "REV_AT_EPOCH": 354, "BSTAR": 0.00012621094, "MEAN_MOTION_DOT": 1.261e-05, "MEAN_MOTION_DDOT": 0}, "tle": {"line1": "1 66661U 25274M   25354.37695292  .00001261  00000+0  12621-3 0  9991", "line2": "2 66661  97.7406 281.4760 0013237 253.9546 106.0216 14.93134742  3544"}}, "geometry": {"type": "Point", "coordinates": [-83.73861197262805, 35.73773210428439]}}, {"type": "Feature", "properties": {"norad_id": 66662, "name": "2025-274N", "group": "last-30-days", "lat": 40.59126933306636, "lon": -84.81217903026173, "alt_km": 592.9657381135103, "timestamp": "2025-12-20T18:51:30.445717+00:00", "meta": {"OBJECT_NAME": "2025-274N", "OBJECT_ID": "2025-274N", "EPOCH": "2025-12-20T09:01:30.694080", "MEAN_MOTION": 14.93189751, "ECCENTRICITY": 0.00136557, "INCLINATION": 97.7406, "RA_OF_ASC_NODE": 281.4775, "ARG_OF_PERICENTER": 253.7281, "MEAN_ANOMALY": 106.2436, "EPHEMERIS_TYPE": 0, "CLASSIFICATION_TYPE": "U", "NORAD_CAT_ID": 66662, "ELEMENT_SET_NO": 999, "REV_AT_EPOCH": 354, "BSTAR": 0.00013605859, "MEAN_MOTION_DOT": 1.366e-05, "MEAN_MOTION_DDOT": 0}, "tle": {"line1": "1 66662U 25274N   25354.37604970  .00001366  00000+0  13606-3 0  9995", "line2": "2 66662  97.7406 281.4775 0013655 253.7281 106.2436 14.93189751  3545"}}, "geometry": {"type": "Point", "coordinates": [-84.81217903026173, 40.59126933306636]}}, {"type": "Feature", "properties": {"norad_id": 66663, "name": "KSLV-II R/B", "group": "last-30-days", "lat": 45.18101727807939, "lon": -85.81742625694817, "alt_km": 586.9448518744848, "timestamp": "2025-12-20T18:51:30.445727+00:00", "meta": {"OBJECT_NAME": "KSLV-II R/B", "OBJECT_ID": "2025-274P", "EPOCH": "2025-12-19T21:48:24.651360", "MEAN_MOTION": 14.97453325, "ECCENTRICITY": 0.0056754, "INCLINATION": 97.7442, "RA_OF_ASC_NODE": 281.1844, "ARG_OF_PERICENTER": 294.3607, "MEAN_ANOMALY": 65.1697, "EPHEMERIS_TYPE": 0, "CLASSIFICATION_TYPE": "U", "NORAD_CAT_ID": 66663, "ELEMENT_SET_NO": 999, "REV_AT_EPOCH": 348, "BSTAR": 0.0010967, "MEAN_MOTION_DOT": 0.0001315, "MEAN_MOTION_DDOT": 0}, "tle": {"line1": "1 66663U 25274P   25353.90861865  .00013150  00000+0  10967-2 0  9992", "line2": "2 66663  97.7442 281.1844 0056754 294.3607  65.1697 14.97453325  3480"}}, "geometry": {"type": "Point", "coordinates": [-85.81742625694817, 45.18101727807939]}}]}